IRIDIUM 166             
1 43570U 18061B   25164.84748186  .00000105  00000+0  30513-4 0  9990
2 43570  86.3991 210.6299 0002415  85.8053 274.3419 14.34217660360606
IRIDIUM 158             
1 43571U 18061C   25164.60646408  .00000089  00000+0  24615-4 0  9996
2 43571  86.3990 210.7401 0002516  93.4771 266.6713 14.34218304360535
IRIDIUM 165             
1 43572U 18061D   25164.56206394  .00000095  00000+0  26683-4 0  9992
2 43572  86.3992 210.7979 0002212  89.1458 270.9991 14.34216845360551
IRIDIUM 155             
1 43573U 18061E   25164.66354786  .00000123  00000+0  36920-4 0  9990
2 43573  86.3987 210.6431 0002616  90.0384 270.1111 14.34218387360543
IRIDIUM 154             
1 43574U 18061F   25164.85382525  .00000063  00000+0  15452-4 0  9994
2 43574  86.3992 210.6789 0002354  91.8254 268.3211 14.34218115360617
IRIDIUM 163             
1 43575U 18061G   25164.55572277  .00000304  00000+0  10154-3 0  9998
2 43575  86.3988 210.7305 0002436  96.2853 263.8620 14.34219318360545
IRIDIUM 156             
1 43576U 18061H   25164.60012257  .00000129  00000+0  38953-4 0  9995
2 43576  86.3988 210.7186 0002597  86.8533 273.2960 14.34217921360541
IRIDIUM 164             
1 43577U 18061J   25164.58109006  .00000224  00000+0  72750-4 0  9991
2 43577  86.4004 210.7601 0002295  94.1227 266.0231 14.34215701360580
